QIANFAN-17              
1 60395U 24140S   25336.43887847  .00000082  00000+0  10905-3 0  9999
2 60395  88.9760 300.4997 0013168 232.3976 127.5980 13.50974688 66742
QIANFAN-18              
1 60396U 24140T   25336.41829559  .00000080  00000+0  10494-3 0  9995
2 60396  88.9753 300.0361 0012847 212.7553 147.2803 13.50974637 66132
QIANFAN-19              
1 61552U 24185A   25336.53808707  .00000748  00000+0  38445-3 0  9991
2 61552  88.9823  79.1080 0006158 354.6946   5.4175 14.14279611 68227
QIANFAN-20              
1 61553U 24185B   25336.53118821  .00000656  00000+0  37234-3 0  9996
2 61553  88.9820  79.4224 0006601  37.6343 322.5302 14.08825202 68052
QIANFAN-21              
1 61554U 24185C   25336.48114668  .00000920  00000+0  40533-3 0  9996
2 61554  88.9737  78.1789 0011766  46.1765 314.0398 14.22584927 68517
QIANFAN-22              
1 61555U 24185D   25336.54037824  .00000262  00000+0  21553-3 0  9992
2 61555  88.9804  80.3615 0007369  42.0659 318.1076 13.86296805 67529
QIANFAN-23              
1 61556U 24185E   25336.52785491  .00000663  00000+0  32770-3 0  9999
2 61556  88.9814  78.9238 0007321   5.1745 354.9517 14.16276328 68306
QIANFAN-24              
1 61557U 24185F   25336.49246816  .00000855  00000+0  36764-3 0  9999
2 61557  88.9796  78.3495 0008412 343.6588  16.4332 14.23787278 68564
